GLOBALSTAR M035         
1 25851U 99037A   24358.55929517 -.00000086  00000+0 -84310-3 0  9998
2 25851  51.9958  86.6307 0013969  61.3230  19.4272 11.04535393 76858
GLOBALSTAR M032         
1 25852U 99037B   24358.18567373 -.00000070  00000+0 -10963-3 0  9992
2 25852  51.9965 284.8046 0010178 233.1475 126.8391 11.19055099115088
GLOBALSTAR M051         
1 25853U 99037C   24359.46674937 -.00000062  00000+0  24828-3 0  9995
2 25853  51.9792 102.3819 0000766 201.2893 158.7886 11.42199907112444
GLOBALSTAR M030         
1 25854U 99037D   24358.76448319 -.00000053  00000+0  46843-3 0  9992
2 25854  51.9887 281.3382 0004225  87.2583 272.8718 11.55101055129873
GLOBALSTAR M048         
1 25872U 99041A   24358.53325427 -.00000056  00000+0  36571-3 0  9996
2 25872  51.9396  32.8777 0013318 239.2037 290.2585 11.33852660105052
GLOBALSTAR M026         
1 25873U 99041B   24358.57971760  .00000012  00000+0  27882-2 0  9993
2 25873  51.9971 206.3928 0001376  11.3121  30.6868 11.06825345129047
GLOBALSTAR M043         
1 25874U 99041C   24358.83099753 -.00000045  00000+0  67808-3 0  9996
2 25874  51.9380 132.8260 0013038  17.6212 152.8008 11.25688903103157
GLOBALSTAR M028         
1 25875U 99041D   24359.11865354 -.00000041  00000+0  38534-3 0  9997
2 25875  51.9644 355.0859 0063563  51.2967 309.3556 12.50573071168306
